format  = 'OEF1.1'       ! file format
rectype = 'ML'           ! record type (1L/ML)
refsys  = ECLM J2000     ! default reference system
END_OF_HEADER
2001EC
! Equinoctial elements: a, e*sin(LP), e*cos(LP), tan(i/2)*sin(LN), tan(i/2)*cos(LN), mean long.
 EQU   2.57945485983420E+00  0.731386111507268  0.251175364364895 -0.000138594509330  0.005197452706273 201.2030520008850
 MJD     52470.00000000 TDT
 MAG  18.476  0.150
! RMS    5.20547E-04   4.86823E-05   1.38333E-05   9.62912E-08   5.94935E-07   3.94839E-02
! EIG   3.53547E-09   1.57921E-08   1.55464E-07   2.94340E-07   5.01675E-06   8.65099E-04
! WEA  -0.60171  -0.05627  -0.01535   0.00006  -0.00058   0.79658
 COV   2.709688030757512E-07  2.534110339093694E-08  6.903691397676796E-09
 COV  -2.808864433963893E-11  2.633820031303643E-10 -2.055259796342306E-05
 COV   2.369965343856619E-09  6.463468291023604E-10 -2.623235490579100E-12
 COV   2.460035666942762E-11 -1.922142511297408E-06  1.913603607632508E-10
 COV  -6.546662007594834E-13  6.185794567246529E-12 -5.248282833396737E-07
 COV   9.271992440476026E-15 -5.092833565033952E-14  2.125744553838519E-09
 COV   3.539480096109909E-13 -1.993636815684043E-08  1.558977367263479E-03
 NOR   2.455157108048328E+16  1.596849033658017E+16  2.643417731724848E+16
 NOR  -2.039088943158658E+14 -4.663211688928329E+13  3.522598872328759E+14
 NOR   1.044554899397759E+16  1.719718044388182E+16  5.850782849922404E+13
 NOR   2.607866858389211E+13  2.291872643441665E+14  2.846161939707556E+16
 NOR  -1.889245931457613E+14 -4.117026254525542E+13  3.792765094517883E+14
 NOR   3.723942000210469E+15  1.017533079098853E+15 -2.671738816965469E+12
 NOR   2.908603680153295E+14 -5.941432420857188E+11  5.054233284576420E+12
